satname,norad_id,inclination_deg,eccentricity,mean_motion_rev_per_day,perigee_km,apogee_km,l1,l2
STARLINK-1494,45760,53.0521,0.0005491,15.55313047,397.5202355678848,404.9653504565704,1 45760U 20038AG  25345.39410088  .00064648  00000+0  93524-3 0  9990,2 45760  53.0521 224.4952 0005491 133.1921 226.9549 15.55313047303576
STARLINK-1502,45764,53.054,0.0001193,15.06401089,546.3820266273488,548.0344139969156,1 45764U 20038AL  25345.18067815  .00009464  00000+0  65337-3 0  9993,2 45764  53.0540 253.9517 0001193  81.0651 279.0473 15.06401089303149
STARLINK-1470,45772,53.0518,0.0007308,15.20699399,498.70046760434707,508.75900402541356,1 45772U 20038AU  25345.28512242  .00043221  00000+0  19437-2 0  9990,2 45772  53.0518 222.2722 0007308  72.7997 287.3797 15.20699399303593
STARLINK-1482,45773,53.0527,0.000142,15.06423465,546.1562527432097,548.1230313095457,1 45773U 20038AV  25345.01295416  .00007464  00000+0  51912-3 0  9997,2 45773  53.0527 234.7033 0001420  98.9726 261.1424 15.06423465303394
STARLINK-1496,45780,53.0516,0.0001605,15.06397856,546.1066094990747,548.3296484954826,1 45780U 20038BC  25345.11247638  .00000833  00000+0  74827-4 0  9993,2 45780  53.0516 234.2577 0001605  73.3489 286.7676 15.06397856303392
STARLINK-1497,45781,53.0346,0.0004913,15.670303,364.09186636954473,370.72003687380857,1 45781U 20038BD  25345.66668981  .00261408  00000+0  23368-2 0  9991,2 45781  53.0346 161.2495 0004913 116.1600 151.5107 15.67030300  5930
STARLINK-1510,45784,53.0226,0.0003839,15.90597166,298.0467411874806,303.17468368108894,1 45784U 20038BG  25345.66668981  .00382716  65949-4  12205-2 0  9996,2 45784  53.0226 131.6889 0003839 292.8831 137.9958 15.90597166  5994
STARLINK-1513,45786,53.0526,0.000179,15.06406754,545.9512242917936,548.4304916649498,1 45786U 20038BJ  25345.40734455 -.00000680  00000+0 -26724-4 0  9994,2 45786  53.0526 232.9343 0001790  88.8937 271.2257 15.06406754303458
STARLINK-1522,46027,53.0548,0.0001606,15.06397879,546.1058464830294,548.3302705278211,1 46027U 20055A   25345.52070460  .00000892  00000+0  78807-4 0  9996,2 46027  53.0548 162.4225 0001606  90.5008 269.6165 15.06397879295593
STARLINK-1523,46028,53.0542,8.28e-05,15.0640696,546.6168095284665,547.7636437171959,1 46028U 20055B   25345.20368936  .00000072  00000+0  23723-4 0  9997,2 46028  53.0542 163.8513 0000828 123.8851 236.2217 15.06406960295561
STARLINK-1526,46029,53.0537,0.0001888,15.06398876,545.9074963803978,548.5225092966703,1 46029U 20055C   25345.52805810 -.00000283  00000+0 -97124-7 0  9995,2 46029  53.0537 162.3888 0001888  89.8916 270.2290 15.06398876295605
STARLINK-1555,46032,53.0547,0.0001435,15.0641101,546.1840314037099,548.171596755351,1 46032U 20055F   25345.51332124  .00002700  00000+0  20005-3 0  9995,2 46032  53.0547 162.4556 0001435  83.4957 276.6195 15.06411010295606
STARLINK-1556,46033,53.0539,0.0001236,15.06417292,546.3025944244082,548.0145274870765,1 46033U 20055G   25345.22950893  .00004153  00000+0  29736-3 0  9997,2 46033  53.0539 163.7316 0001236  68.7920 291.3202 15.06417292295534
STARLINK-1557,46034,53.0542,0.0001299,15.06401782,546.3064943020972,548.1056984385341,1 46034U 20055H   25345.49858011  .00002592  00000+0  19283-3 0  9997,2 46034  53.0542 162.5212 0001299  98.8500 261.2636 15.06401782295576
STARLINK-1558,46035,53.053,0.0001378,15.06418949,546.1991775627075,548.1077876197105,1 46035U 20055J   25345.50595191  .00004817  00000+0  34186-3 0  9998,2 46035  53.0530 162.4914 0001378  92.0853 268.0294 15.06418949295609
STARLINK-1560,46036,53.0535,0.0001422,15.06403084,546.2173227177163,548.186889159445,1 46036U 20055K   25345.49120594  .00003979  00000+0  28585-3 0  9992,2 46036  53.0535 162.5590 0001422  92.9464 267.1688 15.06403084295604
STARLINK-1567,46038,53.0545,0.0001642,15.06404831,546.0596118566164,548.3338914606602,1 46038U 20055M   25345.50226464  .00004883  00000+0  34642-3 0  9995,2 46038  53.0545 162.5079 0001642  83.7876 276.3300 15.06404831295590
STARLINK-1569,46039,53.0498,0.000137,15.06399885,546.2631375960118,548.1606831974605,1 46039U 20055N   25345.50963294  .00000644  00000+0  62121-4 0  9990,2 46039  53.0498 162.4730 0001370  90.1188 269.9958 15.06399885295596
STARLINK-1582,46043,53.0537,0.0001436,15.06406165,546.1981858260087,548.1871405052698,1 46043U 20055S   25345.51699852  .00000854  00000+0  76241-4 0  9993,2 46043  53.0537 162.4401 0001436  91.4896 268.6257 15.06406165295591
STARLINK-1591,46045,53.0503,0.0001257,15.06397163,546.3497355416257,548.0907703550156,1 46045U 20055U   25345.47646826  .00002466  00000+0  18438-3 0  9997,2 46045  53.0503 162.6205 0001257  89.7973 270.3161 15.06397163295576
STARLINK-1524,46047,53.0505,0.0001119,15.063984,546.4415146598103,547.991408764542,1 46047U 20055W   25345.49581894  .00001166  00000+0  97185-4 0  9997,2 46047  53.0505 152.5354 0001119  83.2834 276.8283 15.06398400295734
STARLINK-1527,46048,53.0513,0.0001193,15.06381725,546.4413679823929,548.0937695124958,1 46048U 20055X   25345.49214262 -.00001543  00000+0 -84747-4 0  9991,2 46048  53.0513 152.5508 0001193  75.3313 284.7808 15.06381725295712
STARLINK-1540,46051,53.055,0.0001292,15.0639521,546.3314817068594,548.1209955677232,1 46051U 20055AA  25345.45895414  .00000194  00000+0  31899-4 0  9994,2 46051  53.0550 152.7022 0001292  79.1718 280.9416 15.06395210295741
STARLINK-1541,46052,53.0537,0.0001352,15.06393867,546.2940450973729,548.1666644301004,1 46052U 20055AB  25344.78073791  .00000944  00000+0  82252-4 0  9998,2 46052  53.0537 155.7436 0001352  89.9392 270.1752 15.06393867295608
STARLINK-1543,46053,53.0559,0.0001451,15.0640399,546.1944628885694,548.2041954913002,1 46053U 20055AC  25345.44789012  .00001842  00000+0  14252-3 0  9995,2 46053  53.0559 152.7497 0001451  92.9790 267.1365 15.06403990295732
STARLINK-1548,46054,53.0536,0.0001357,15.06397643,546.2790110336346,548.1585525928176,1 46054U 20055AD  25345.45526842  .00000675  00000+0  64219-4 0  9999,2 46054  53.0536 152.7160 0001357  89.5790 270.5354 15.06397643295735
STARLINK-1554,46055,53.0535,0.0001903,15.06403101,545.8841618142615,548.5199458581519,1 46055U 20055AE  25344.77706343  .00003981  00000+0  28599-3 0  9993,2 46055  53.0535 155.7612 0001903 100.0844 260.0360 15.06403101295633
STARLINK-1564,46058,53.0505,0.0001292,15.06399381,546.3186998059764,548.1082103635708,1 46058U 20055AH  25345.45163749  .00001375  00000+0  11121-3 0  9997,2 46058  53.0505 153.1940 0001292  92.0705 268.0432 15.06399381295728
